OBJECT_NAME,OBJECT_ID,EPOCH,MEAN_MOTION,ECCENTRICITY,INCLINATION,RA_OF_ASC_NODE,ARG_OF_PERICENTER,MEAN_ANOMALY,EPHEMERIS_TYPE,CLASSIFICATION_TYPE,NORAD_CAT_ID,ELEMENT_SET_NO,REV_AT_EPOCH,BSTAR,MEAN_MOTION_DOT,MEAN_MOTION_DDOT
HST,1990-037B,2026-06-15T02:55:52.021632,15.30726834,.00018775,28.4718,94.6872,120.6716,239.4066,0,U,20580,999,78825,.18362174E-3,.5845E-4,0
POLAR,1996-013A,2026-06-15T11:54:59.732352,1.29846141,.64687771,79.8518,227.0721,209.1373,89.7305,0,U,23802,999,14483,0,.145E-5,0
SWAS,1998-071A,2026-06-15T13:23:28.099968,15.09618642,.00086918,69.8953,231.7209,261.5465,98.4714,0,U,25560,999,49702,.17765808E-3,.276E-4,0
CXO,1999-040B,2026-06-18T09:03:04.311936,0.37804062,.78354691,56.2189,116.5542,310.3049,0.1821,0,U,25867,999,1732,0,.529E-5,0
XMM-NEWTON,1999-066A,2026-06-16T08:27:19.431072,0.50126459,.46745597,64.4922,282.9960,64.9442,0.1261,0,U,25989,999,2300,0,.36E-6,0
TERRA,1999-068A,2026-06-15T14:10:51.528288,14.61101935,.00014546,97.9457,216.2004,195.2632,286.2211,0,U,25994,999,40937,.74204041E-4,.32E-5,0
CLUSTER II-FM7 (SAMBA),2000-041A,2026-06-17T03:20:03.973632,0.44868040,.9054007,149.9159,50.9864,268.1291,359.6411,0,U,26410,999,2030,0,.13373E-3,0
CLUSTER II-FM8 (TANGO),2000-045B,2026-06-15T04:28:42.162240,0.44420492,.90565278,150.1453,51.6789,268.6418,2.8164,0,U,26464,999,2030,0,.11716E-3,0
ODIN,2001-007A,2026-06-15T13:40:59.621664,15.75308074,.00067867,97.3829,207.4088,144.9163,215.2550,0,U,26702,999,38914,.10327709E-2,.157777E-2,0
TIMED,2001-055B,2026-06-15T14:28:33.862080,14.95292066,.00010328,74.0675,238.2078,338.3114,21.8027,0,U,26998,999,33058,.89817864E-4,.95E-5,0
CORIOLIS,2003-001A,2026-06-15T13:50:08.264256,14.19944412,.00132799,98.7125,173.4858,213.6872,146.3461,0,U,27640,999,21399,.57064062E-4,.78E-6,0
SORCE,2003-004A,2026-06-15T00:20:35.799072,15.03703956,.00167361,39.9911,274.0755,32.6972,327.4855,0,U,27651,999,27157,.19705553E-3,.2604E-4,0
MOST,2003-031D,2026-06-15T12:31:20.338752,14.21322169,.00087089,98.7045,174.2710,255.8574,104.1636,0,U,27843,999,19047,.41361887E-4,.46E-6,0
SCISAT 1,2003-036A,2026-06-15T11:16:36.275520,14.81446007,.00085899,73.9285,174.7550,244.4926,115.5362,0,U,27858,999,23119,.56554385E-4,.406E-5,0
SWIFT,2004-047A,2026-06-15T09:44:36.258144,15.68175033,.0001619,20.5516,198.6409,255.9834,104.0432,0,U,28485,999,18658,.35480339E-3,.42527E-3,0
HINODE (SOLAR-B),2006-041A,2026-06-15T13:12:17.848512,14.68621093,.00160578,98.0549,182.7269,295.4065,64.5478,0,U,29479,999,5463,.10771185E-3,.578E-5,0
SHIJIAN-6 02A (SJ-6 02A),2006-046A,2026-06-15T15:22:08.437152,15.16931843,.00043235,97.6362,207.6948,128.0636,232.0987,0,U,29505,999,7203,.35857597E-3,.7006E-4,0
SHIJIAN-6 02B (SJ-6 02B),2006-046B,2026-06-15T14:43:27.325344,15.01374971,.00152975,97.7158,195.6818,64.8536,295.4273,0,U,29506,999,7050,.1201692E-3,.1491E-4,0
FGRST (GLAST),2008-029A,2026-06-15T12:37:38.878752,15.23940963,.00076428,25.5806,216.0172,308.9308,51.0549,0,U,33053,999,99558,.88167559E-4,.2531E-4,0
SDO,2010-005A,2026-06-14T10:29:29.087808,1.00269990,.00017144,34.6460,86.3840,49.5303,182.1298,0,U,36395,999,6003,0,-.94E-6,0
CRYOSAT 2,2010-013A,2026-06-15T13:33:58.781088,14.51898603,.00021624,92.0354,276.9073,88.9541,271.1914,0,U,36508,999,85784,.43759379E-4,.179E-5,0
X-SAT,2011-015C,2026-06-15T14:39:33.372288,14.25206049,.00140502,98.3502,143.7091,353.2157,6.8831,0,U,37389,999,78745,.83844718E-4,.156E-5,0
GCOM-W1 (SHIZUKU),2012-025A,2026-06-15T11:07:59.423808,14.57123136,.00018129,98.2021,107.0456,76.4042,39.7184,0,U,38337,999,74878,.94032591E-4,.379E-5,0
NUSTAR,2012-031A,2026-06-15T16:00:00.999936,15.08790827,.000678,6.0273,45.5408,83.0304,3.9239,0,U,38358,999,130,.44579872E-3,.8084E-4,0
NEOSSAT,2013-009D,2026-06-15T11:12:59.187744,14.35825849,.00098533,98.4176,346.5409,249.5350,110.4779,0,U,39089,999,69649,.55441442E-4,.118E-5,0
BRITE-AUSTRIA,2013-009F,2026-06-15T11:12:14.467968,14.36541469,.00090853,98.3993,345.9451,242.3065,117.7200,0,U,39091,999,69680,.61897611E-4,.139E-5,0
IRIS,2013-033A,2026-06-15T13:10:07.396608,14.85882483,.00236696,97.9330,5.8309,327.3812,32.5940,0,U,39197,999,70013,.10627368E-3,.874E-5,0
HISAKI (SPRINT-A),2013-049A,2026-06-15T12:12:12.263328,13.55544623,.01368557,29.7185,228.5480,3.2464,356.8974,0,U,39253,999,63119,.92304697E-4,.131E-5,0
CASSIOPE,2013-055A,2026-06-15T12:31:27.851232,15.25047037,.02932246,80.9156,68.7444,68.0280,295.1834,0,U,39265,999,66741,.48446056E-3,.44286E-3,-.517515E-6
STSAT-3,2013-066G,2026-06-15T15:32:57.416064,15.02748704,.00111516,97.6216,136.5609,49.3080,310.9112,0,U,39422,999,68397,.20091748E-3,.2628E-4,0
SWARM B,2013-067A,2026-06-15T13:30:11.483424,15.28543044,.00033233,87.7434,342.8104,86.4240,273.7389,0,U,39451,999,68299,.11114968E-3,.312E-4,0
